{"type": "FeatureCollection", "features": [ {"type": "Feature", "properties": {"norad_id": 66476, "name": "STARLINK-35372", "group": "last-30-days", "lat": 9.892116789790073, "lon": -135.60127566533905, "alt_km": 442.33865724509815, "timestamp": "2025-12-15T11:38:35.904350+00:00", "meta": {"OBJECT_NAME": "STARLINK-35372", "OBJECT_ID": "2025-262W", "EPOCH": "2025-12-14T20:00:06.000192", "MEAN_MOTION": 15.40700979, "ECCENTRICITY": 0.00014844, "INCLINATION": 43.0011, "RA_OF_ASC_NODE": 58.9408, "ARG_OF_PERICENTER": 252.084, "MEAN_ANOMALY": 254.0518, "EPHEMERIS_TYPE": 0, "CLASSIFICATION_TYPE": "U", "NORAD_CAT_ID": 66476, "ELEMENT_SET_NO": 999, "REV_AT_EPOCH": 586, "BSTAR": 0.00071220946, "MEAN_MOTION_DOT": 0.00029563, "MEAN_MOTION_DDOT": 0}, "tle": {"line1": "1 66476U 25262W   25348.83340278  .00029563  00000+0  71221-3 0  9993", "line2": "2 66476  43.0011  58.9408 0001484 252.0840 254.0518 15.40700979  5868"}}, "geometry": {"type": "Point", "coordinates": [-135.60127566533905, 9.892116789790073]}}, {"type": "Feature", "properties": {"norad_id": 66477, "name": "STARLINK-35354", "group": "last-30-days", "lat": -7.029807701381767, "lon": -117.27356540408759, "alt_km": 444.800467086332, "timestamp": "2025-12-15T11:38:35.904360+00:00", "meta": {"OBJECT_NAME": "STARLINK-35354", "OBJECT_ID": "2025-262X", "EPOCH": "2025-12-14T20:00:06.000192", "MEAN_MOTION": 15.40667491, "ECCENTRICITY": 0.00018776, "INCLINATION": 43.0009, "RA_OF_ASC_NODE": 58.8788, "ARG_OF_PERICENTER": 280.2503, "MEAN_ANOMALY": 250.9177, "EPHEMERIS_TYPE": 0, "CLASSIFICATION_TYPE": "U", "NORAD_CAT_ID": 66477, "ELEMENT_SET_NO": 999, "REV_AT_EPOCH": 597, "BSTAR": 0.00045917294, "MEAN_MOTION_DOT": 0.00018904, "MEAN_MOTION_DDOT": 0}, "tle": {"line1": "1 66477U 25262X   25348.83340278  .00018904  00000+0  45917-3 0  9994", "line2": "2 66477  43.0009  58.8788 0001877 280.2503 250.9177 15.40667491  5970"}}, "geometry": {"type": "Point", "coordinates": [-117.27356540408759, -7.029807701381767]}}, {"type": "Feature", "properties": {"norad_id": 66478, "name": "STARLINK-35283", "group": "last-30-days", "lat": -15.038683127494938, "lon": -108.14927246526923, "alt_km": 447.8342030532849, "timestamp": "2025-12-15T11:38:35.904371+00:00", "meta": {"OBJECT_NAME": "STARLINK-35283", "OBJECT_ID": "2025-262Y", "EPOCH": "2025-12-14T20:00:06.000192", "MEAN_MOTION": 15.41393802, "ECCENTRICITY": 0.00015825, "INCLINATION": 43.001, "RA_OF_ASC_NODE": 58.8501, "ARG_OF_PERICENTER": 288.5137, "MEAN_ANOMALY": 254.7321, "EPHEMERIS_TYPE": 0, "CLASSIFICATION_TYPE": "U", "NORAD_CAT_ID": 66478, "ELEMENT_SET_NO": 999, "REV_AT_EPOCH": 597, "BSTAR": -0.026756071, "MEAN_MOTION_DOT": -0.0105233, "MEAN_MOTION_DDOT": 0}, "tle": {"line1": "1 66478U 25262Y   25348.83340278 -.01052330  00000+0 -26756-1 0  9997", "line2": "2 66478  43.0010  58.8501 0001582 288.5137 254.7321 15.41393802  5979"}}, "geometry": {"type": "Point", "coordinates": [-108.14927246526923, -15.038683127494938]}}, {"type": "Feature", "properties": {"norad_id": 66479, "name": "STARLINK-35581", "group": "last-30-days", "lat": 1.4349709374134012, "lon": -126.38790209752904, "alt_km": 444.3439886307833, "timestamp": "2025-12-15T11:38:35.904382+00:00", "meta": {"OBJECT_NAME": "STARLINK-35581", "OBJECT_ID": "2025-262Z", "EPOCH": "2025-12-14T20:00:06.000192", "MEAN_MOTION": 15.40696096, "ECCENTRICITY": 0.00014566, "INCLINATION": 43.0012, "RA_OF_ASC_NODE": 58.909, "ARG_OF_PERICENTER": 314.8554, "MEAN_ANOMALY": 203.7902, "EPHEMERIS_TYPE": 0, "CLASSIFICATION_TYPE": "U", "NORAD_CAT_ID": 66479, "ELEMENT_SET_NO": 999, "REV_AT_EPOCH": 597, "BSTAR": 0.00041994119, "MEAN_MOTION_DOT": 0.00017276, "MEAN_MOTION_DDOT": 0}, "tle": {"line1": "1 66479U 25262Z   25348.83340278  .00017276  00000+0  41994-3 0  9998", "line2": "2 66479  43.0012  58.9090 0001456 314.8554 203.7902 15.40696096  5971"}}, "geometry": {"type": "Point", "coordinates": [-126.38790209752904, 1.4349709374134012]}}, {"type": "Feature", "properties": {"norad_id": 66480, "name": "STARLINK-35670", "group": "last-30-days", "lat": -23.11094502363903, "lon": -97.68121994348357, "alt_km": 447.6605182664789, "timestamp": "2025-12-15T11:38:35.904393+00:00", "meta": {"OBJECT_NAME": "STARLINK-35670", "OBJECT_ID": "2025-262AA", "EPOCH": "2025-12-14T20:00:06.000192", "MEAN_MOTION": 15.4339325, "ECCENTRICITY": 9.813e-05, "INCLINATION": 43.0008, "RA_OF_ASC_NODE": 58.8252, "ARG_OF_PERICENTER": 272.3928, "MEAN_ANOMALY": 281.1939, "EPHEMERIS_TYPE": 0, "CLASSIFICATION_TYPE": "U", "NORAD_CAT_ID": 66480, "ELEMENT_SET_NO": 999, "REV_AT_EPOCH": 597, "BSTAR": -0.059073166, "MEAN_MOTION_DOT": -0.02400824, "MEAN_MOTION_DDOT": 0}, "tle": {"line1": "1 66480U 25262AA  25348.83340278 -.02400824  00000+0 -59073-1 0  9994", "line2": "2 66480  43.0008  58.8252 0000981 272.3928 281.1939 15.43393250  5971"}}, "geometry": {"type": "Point", "coordinates": [-97.68121994348357, -23.11094502363903]}}, {"type": "Feature", "properties": {"norad_id": 66481, "name": "STARLINK-35698", "group": "last-30-days", "lat": -30.13641886586783, "lon": -86.43331323844069, "alt_km": 443.8669565968203, "timestamp": "2025-12-15T11:38:35.904403+00:00", "meta": {"OBJECT_NAME": "STARLINK-35698", "OBJECT_ID": "2025-262AB", "EPOCH": "2025-12-14T20:00:06.000192", "MEAN_MOTION": 15.44498857, "ECCENTRICITY": 9.984e-05, "INCLINATION": 43.0004, "RA_OF_ASC_NODE": 58.8024, "ARG_OF_PERICENTER": 291.8145, "MEAN_ANOMALY": 270.9809, "EPHEMERIS_TYPE": 0, "CLASSIFICATION_TYPE": "U", "NORAD_CAT_ID": 66481, "ELEMENT_SET_NO": 999, "REV_AT_EPOCH": 597, "BSTAR": -0.049843577, "MEAN_MOTION_DOT": -0.02096764, "MEAN_MOTION_DDOT": 0}, "tle": {"line1": "1 66481U 25262AB  25348.83340278 -.02096764  00000+0 -49844-1 0  9994", "line2": "2 66481  43.0004  58.8024 0000998 291.8145 270.9809 15.44498857  5972"}}, "geometry": {"type": "Point", "coordinates": [-86.43331323844069, -30.13641886586783]}}, {"type": "Feature", "properties": {"norad_id": 66482, "name": "STARLINK-35648", "group": "last-30-days", "lat": -42.64058931209138, "lon": -43.84041708463021, "alt_km": 416.66706822776086, "timestamp": "2025-12-15T11:38:35.904416+00:00", "meta": {"OBJECT_NAME": "STARLINK-35648", "OBJECT_ID": "2025-262AC", "EPOCH": "2025-12-13T12:08:21.572736", "MEAN_MOTION": 15.50603373, "ECCENTRICITY": 0.00010524, "INCLINATION": 42.9975, "RA_OF_ASC_NODE": 66.5208, "ARG_OF_PERICENTER": 275.6037, "MEAN_ANOMALY": 84.4703, "EPHEMERIS_TYPE": 0, "CLASSIFICATION_TYPE": "U", "NORAD_CAT_ID": 66482, "ELEMENT_SET_NO": 999, "REV_AT_EPOCH": 552, "BSTAR": 0.0015071759, "MEAN_MOTION_DOT": 0.00089167, "MEAN_MOTION_DDOT": 0}, "tle": {"line1": "1 66482U 25262AC  25347.50580524  .00089167  00000+0  15072-2 0  9990", "line2": "2 66482  42.9975  66.5208 0001052 275.6037  84.4703 15.50603373  5520"}}, "geometry": {"type": "Point", "coordinates": [-43.84041708463021, -42.64058931209138]}}, {"type": "Feature", "properties": {"norad_id": 66483, "name": "STARLINK-35654", "group": "last-30-days", "lat": -42.68024281647645, "lon": -43.347778810150274, "alt_km": 415.58710702128883, "timestamp": "2025-12-15T11:38:35.904427+00:00", "meta": {"OBJECT_NAME": "STARLINK-35654", "OBJECT_ID": "2025-262AD", "EPOCH": "2025-12-14T06:41:00.783456", "MEAN_MOTION": 15.50503337, "ECCENTRICITY": 0.00038388, "INCLINATION": 43.0005, "RA_OF_ASC_NODE": 61.9988, "ARG_OF_PERICENTER": 235.7155, "MEAN_ANOMALY": 124.3342, "EPHEMERIS_TYPE": 0, "CLASSIFICATION_TYPE": "U", "NORAD_CAT_ID": 66483, "ELEMENT_SET_NO": 999, "REV_AT_EPOCH": 580, "BSTAR": 0.0014347735, "MEAN_MOTION_DOT": 0.00084531, "MEAN_MOTION_DDOT": 0}, "tle": {"line1": "1 66483U 25262AD  25348.27848129  .00084531  00000+0  14348-2 0  9999", "line2": "2 66483  43.0005  61.9988 0003838 235.7155 124.3342 15.50503337  5806"}}, "geometry": {"type": "Point", "coordinates": [-43.347778810150274, -42.68024281647645]}}, {"type": "Feature", "properties": {"norad_id": 66484, "name": "STARLINK-35371", "group": "last-30-days", "lat": -42.850534020688556, "lon": -40.546172441978136, "alt_km": 417.514805400544, "timestamp": "2025-12-15T11:38:35.904438+00:00", "meta": {"OBJECT_NAME": "STARLINK-35371", "OBJECT_ID": "2025-262AE", "EPOCH": "2025-12-12T16:01:32.219328", "MEAN_MOTION": 15.50574998, "ECCENTRICITY": 0.00014167, "INCLINATION": 43.0018, "RA_OF_ASC_NODE": 71.4158, "ARG_OF_PERICENTER": 278.2184, "MEAN_ANOMALY": 81.8515, "EPHEMERIS_TYPE": 0, "CLASSIFICATION_TYPE": "U", "NORAD_CAT_ID": 66484, "ELEMENT_SET_NO": 999, "REV_AT_EPOCH": 555, "BSTAR": 7.4960958e-05, "MEAN_MOTION_DOT": 4.058e-05, "MEAN_MOTION_DDOT": 0}, "tle": {"line1": "1 66484U 25262AE  25346.66773402  .00004058  00000+0  74961-4 0  9997", "line2": "2 66484  43.0018  71.4158 0001416 278.2184  81.8515 15.50574998  5552"}}, "geometry": {"type": "Point", "coordinates": [-40.546172441978136, -42.850534020688556]}}, {"type": "Feature", "properties": {"norad_id": 66485, "name": "STARLINK-34774", "group": "last-30-days", "lat": -31.70044602893875, "lon": 68.07996310587926, "alt_km": 445.30332738608377, "timestamp": "2025-12-15T11:38:35.904448+00:00", "meta": {"OBJECT_NAME": "STARLINK-34774", "OBJECT_ID": "2025-263A", "EPOCH": "2025-12-14T01:38:02.194080", "MEAN_MOTION": 15.40689642, "ECCENTRICITY": 0.00014296, "INCLINATION": 43.0009, "RA_OF_ASC_NODE": 117.7603, "ARG_OF_PERICENTER": 303.4001, "MEAN_ANOMALY": 56.6718, "EPHEMERIS_TYPE": 0, "CLASSIFICATION_TYPE": "U", "NORAD_CAT_ID": 66485, "ELEMENT_SET_NO": 999, "REV_AT_EPOCH": 576, "BSTAR": 0.0017871736, "MEAN_MOTION_DOT": 0.00075063, "MEAN_MOTION_DDOT": 0}, "tle": {"line1": "1 66485U 25263A   25348.06808095  .00075063  00000+0  17872-2 0  9992", "line2": "2 66485  43.0009 117.7603 0001429 303.4001  56.6718 15.40689642  5765"}}, "geometry": {"type": "Point", "coordinates": [68.07996310587926, -31.70044602893875]}}]}